ONEWEB-0055             
1 45443U 20020V   22050.06442576 -.00000023  00000+0 -10102-3 0  9990
2 45443  87.8946 335.0191 0001692  87.3261 272.8061 13.11420025 95651
ONEWEB-0093             
1 45444U 20020W   22050.03973430 -.00000518  00000+0 -14976-2 0  9997
2 45444  87.8935 335.0576 0001640  89.3585 270.7730 13.11414908 95711
ONEWEB-0029             
1 45445U 20020X   22050.06217888 -.00000279  00000+0 -82333-3 0  9996
2 45445  87.8938 335.0365 0001302  81.2621 278.8654 13.11418588 95697
ONEWEB-0068             
1 45446U 20020Y   22050.03188642 -.00000209  00000+0 -62687-3 0  9992
2 45446  87.8933 335.0568 0001623  95.4554 264.6759 13.11414586 95633
ONEWEB-0046             
1 45447U 20020Z   22050.02852166 -.00000123  00000+0 -38171-3 0  9997
2 45447  87.8935 335.0652 0001670  75.3645 284.7668 13.11415046 95645
ONEWEB-0063             
1 45448U 20020AA  22049.82880474 -.00000189  00000+0 -56859-3 0  9992
2 45448  87.8931 335.0978 0001739  69.0310 291.1004 13.11418630 95691
ONEWEB-0019             
1 45449U 20020AB  22050.03300864 -.00000366  00000+0 -10677-2 0  9992
2 45449  87.8937 335.0448 0001871  79.2585 280.8754 13.11415248 95570
ONEWEB-0094             
1 45450U 20020AC  22050.14961422  .00000042  00000+0  75283-4 0  9994
2 45450  87.9116 319.7588 0001876  84.9496 275.1850 13.17646594 98365
ONEWEB-0087             
1 45451U 20020AD  22050.14297587  .00000087  00000+0  20882-3 0  9992
2 45451  87.8944 335.0567 0001263  87.0027 273.1246 13.11419212 95639
ONEWEB-0082             
1 45452U 20020AE  22049.84002686  .00000309  00000+0  83563-3 0  9994
2 45452  87.8935 335.0599 0001482  99.5017 260.6278 13.11419363 95683
ONEWEB-0050             
1 45453U 20020AF  22049.73059619  .00001250  00000+0  11154-3 0  9994
2 45453  87.5366 278.2436 0023599 285.0101  74.8517 14.94914020104534
ONEWEB-0034             
1 45454U 20020AG  22049.85798883  .00000579  00000+0  15968-2 0  9990
2 45454  87.8933 335.0789 0001469  82.0575 278.0719 13.11416139 95596
ONEWEB-0060             
1 45455U 20020AH  22049.86695604  .00000300  00000+0  81034-3 0  9999
2 45455  87.8937 335.0821 0001640  77.6905 282.4406 13.11415961 95556
ONEWEB-0086             
1 45456U 20020AJ  22049.80860310 -.00000446  00000+0 -12945-2 0  9999
2 45456  87.8934 335.0877 0001551  87.8372 272.2933 13.11415130 95603
ONEWEB-0088             
1 45457U 20020AK  22049.86021680  .00000480  00000+0  13182-2 0  9995
2 45457  87.8930 335.0958 0001488  75.2149 284.9143 13.11418234 95546
ONEWEB-0102             
1 47258U 20100A   22049.72881433 -.00000434  00000+0 -12429-2 0  9994
2 47258  87.8870 304.6328 0001691  91.0169 269.1153 13.12441900 57559
ONEWEB-0109             
1 47259U 20100B   22050.12155003 -.00000479  00000+0 -13682-2 0  9999
2 47259  87.8986 304.5055 0001821  85.1384 274.9952 13.12443441 57432
ONEWEB-0110             
1 47260U 20100C   22049.76347794  .00000570  00000+0  15502-2 0  9992
2 47260  87.8890 304.5857 0001838  93.3717 266.7622 13.12443946 57553
ONEWEB-0111             
1 47261U 20100D   22049.71729283 -.00000248  00000+0 -72508-3 0  9999
2 47261  87.8894 304.6242 0001684  88.7839 271.3482 13.12440839 57384
ONEWEB-0114             
1 47262U 20100E   22050.13080543 -.00000023  00000+0 -98584-4 0  9991
2 47262  87.8954 304.4516 0002135  80.9952 279.1418 13.12444312 57392
ONEWEB-0117             
1 47263U 20100F   22050.12386813 -.00000193  00000+0 -57240-3 0  9991
2 47263  87.8978 304.5104 0001730  87.2084 272.9242 13.12443661 57403
ONEWEB-0118             
1 47264U 20100G   22050.15389857  .00000386  00000+0  10371-2 0  9991
2 47264  87.8876 304.4990 0002195  62.2169 297.9182 13.12444297 57604
ONEWEB-0119             
1 47265U 20100H   22049.72421672 -.00000374  00000+0 -10744-2 0  9998
2 47265  87.8869 304.6394 0001748  86.9006 273.2322 13.12444205 57526
ONEWEB-0120             
1 47266U 20100J   22049.75423866  .00000211  00000+0  55015-3 0  9998
2 47266  87.8942 304.6364 0001961  84.6911 275.4441 13.12443682 57550
ONEWEB-0121             
1 47267U 20100K   22050.11923575 -.00000190  00000+0 -56423-3 0  9995
2 47267  87.8949 304.6276 0001546  89.6424 270.4882 13.12443218 57518
ONEWEB-0122             
1 47268U 20100L   22049.73112808 -.00000392  00000+0 -11249-2 0  9991
2 47268  87.8951 304.5773 0001748  86.1700 273.9628 13.12443478 57374
ONEWEB-0123             
1 47269U 20100M   22049.72651148 -.00000424  00000+0 -12144-2 0  9997
2 47269  87.8884 304.6250 0001746  81.2856 278.8470 13.12443753 57518
ONEWEB-0124             
1 47270U 20100N   22049.78889226  .00000058  00000+0  12539-3 0  9995
2 47270  87.8853 304.5144 0001273  91.2592 268.8682 13.12442119 57407
ONEWEB-0125             
1 47271U 20100P   22049.76810974  .00000499  00000+0  13528-2 0  9995
2 47271  87.8928 304.6754 0001998  80.8015 279.3340 13.12444290 57463
ONEWEB-0126             
1 47272U 20100Q   22050.09730093  .00000007  00000+0 -16167-4 0  9997
2 47272  87.8884 304.5974 0001903  88.2015 271.9332 13.12440594 57570
ONEWEB-0127             
1 47273U 20100R   22049.75655553  .00000320  00000+0  85305-3 0  9992
2 47273  87.8861 304.5386 0001718  80.0058 280.1265 13.12444403 57552
ONEWEB-0128             
1 47274U 20100S   22050.15852870  .00000370  00000+0  99331-3 0  9999
2 47274  87.8882 304.4934 0001658  97.9060 262.2257 13.12442060 57624
ONEWEB-0129             
1 47275U 20100T   22050.14004953  .00000297  00000+0  79125-3 0  9997
2 47275  87.8978 304.4962 0003396  76.7183 283.4324 13.12443454 57554
ONEWEB-0130             
1 47276U 20100U   22049.93676298  .00000693  00000+0  18895-2 0  9996
2 47276  87.8916 304.5899 0001580  90.1384 269.9925 13.12443129 57491
ONEWEB-0131             
1 47277U 20100V   22049.93444350  .00000265  00000+0  70087-3 0  9996
2 47277  87.8915 304.5376 0001479  86.5047 273.6251 13.12443374 57534
ONEWEB-0132             
1 47278U 20100W   22049.73575622 -.00000377  00000+0 -10821-2 0  9997
2 47278  87.8877 304.6486 0001972  82.5796 277.5557 13.12443430 57401
ONEWEB-0133             
1 47279U 20100X   22049.75192926  .00000122  00000+0  30496-3 0  9999
2 47279  87.8901 304.5631 0001746  83.3937 276.7391 13.12444219 57566
ONEWEB-0134             
1 47280U 20100Y   22049.71958286  .00000085  00000+0  19951-3 0  9997
2 47280  87.8868 304.5661 0001700  96.7498 263.3824 13.12441033 57534
ONEWEB-0135             
1 47281U 20100Z   22050.14699695  .00000966  00000+0  26491-2 0  9997
2 47281  87.8873 304.4742 0001797  87.9639 272.1695 13.12441310 57616
ONEWEB-0136             
1 47282U 20100AA  22049.93905537  .00000147  00000+0  37429-3 0  9993
2 47282  87.8964 304.5434 0002267 104.5971 255.5409 13.12441309 57510
ONEWEB-0137             
1 47283U 20100AB  22049.74731037 -.00000080  00000+0 -25638-3 0  9992
2 47283  87.8857 304.6072 0001957  80.0008 280.1342 13.12445897 57397
ONEWEB-0138             
1 47284U 20100AC  22049.72189971 -.00000338  00000+0 -97528-3 0  9998
2 47284  87.8862 304.6050 0001916  88.9152 271.2196 13.12442468 57470
ONEWEB-0139             
1 47285U 20100AD  22049.77041616  .00000547  00000+0  14854-2 0  9997
2 47285  87.8915 304.6849 0001809  92.8992 267.2344 13.12443644 57559
ONEWEB-0140             
1 47286U 20100AE  22049.79119912 -.00000009  00000+0 -60198-4 0  9994
2 47286  87.8892 304.6182 0001781  89.7174 270.4159 13.12440268 57526
ONEWEB-0141             
1 47287U 20100AF  22050.16430345  .00000291  00000+0  77346-3 0  9997
2 47287  87.8867 304.5128 0001691  87.0385 273.0937 13.12441890 57551
ONEWEB-0142             
1 47288U 20100AG  22049.72766266 -.00000365  00000+0 -10489-2 0  9990
2 47288  87.8880 304.7000 0002048  82.1539 277.9822 13.12443831 57498
ONEWEB-0143             
1 47289U 20100AH  22049.83741213 -.00000095  00000+0 -29806-3 0  9992
2 47289  87.8914 304.5829 0001684  84.4209 275.7112 13.12442929 57482
ONEWEB-0144             
1 47290U 20100AJ  22050.11462864 -.00000370  00000+0 -10638-2 0  9997
2 47290  87.8956 304.4831 0001635  90.2837 269.8479 13.12442611 57444
ONEWEB-0145             
1 47291U 20100AK  22050.16084094  .00000369  00000+0  99013-3 0  9999
2 47291  87.8889 304.5210 0001794  83.2400 276.8933 13.12440953 57648
ONEWEB-0146             
1 47292U 20100AL  22049.92751851  .00000535  00000+0  14524-2 0  9992
2 47292  87.8875 304.5827 0000659  74.6708 285.4493 13.12442449 57528
ONEWEB-0147             
1 47293U 20100AM  22050.12617108 -.00000149  00000+0 -44827-3 0  9996
2 47293  87.8892 304.5532 0002276  96.1192 264.0195 13.12441249 57444
ONEWEB-0115             
1 48042U 21025A   22050.16674228 -.00000049  00000+0 -16974-3 0  9997
2 48042  87.8870 273.8768 0001396 101.0771 259.0515 13.13468322 46320
ONEWEB-0152             
1 48043U 21025B   22050.10177386 -.00000276  00000+0 -79044-3 0  9994
2 48043  87.8921 273.9132 0001633  97.3077 262.8238 13.13468844 46271
ONEWEB-0153             
1 48044U 21025C   22049.69848511  .00000201  00000+0  51619-3 0  9996
2 48044  87.8854 274.1354 0001663  83.9822 276.1497 13.13471537 46209
ONEWEB-0154             
1 48045U 21025D   22050.15332316  .00000302  00000+0  79189-3 0  9995
2 48045  87.8950 273.9415 0002012  88.5680 271.5679 13.13463859 46236
ONEWEB-0116             
1 48046U 21025E   22050.11969786 -.00000115  00000+0 -35073-3 0  9997
2 48046  87.8944 273.9390 0001183  87.1339 272.9926 13.13469173 46365
ONEWEB-0150             
1 48047U 21025F   22049.63575743 -.00000197  00000+0 -57468-3 0  9991
2 48047  87.8828 273.9599 0001868  81.5941 278.5399 13.13469002 46193
ONEWEB-0107             
1 48048U 21025G   22050.09505778 -.00000084  00000+0 -26563-3 0  9992
2 48048  87.8855 273.8748 0002145  82.9711 277.1661 13.13468954 46235
ONEWEB-0101             
1 48049U 21025H   22049.90685916  .00000322  00000+0  84674-3 0  9994
2 48049  87.8848 273.9674 0001842  92.5298 267.6042 13.13469491 46185
